[{"OBJECT_NAME":"ONEWEB-0271","OBJECT_ID":"2021-060Y","EPOCH":"2025-10-15T14:42:11.476512","MEAN_MOTION":13.1659423,"ECCENTRICITY":0.00017693,"INCLINATION":87.8984,"RA_OF_ASC_NODE":277.4926,"ARG_OF_PERICENTER":96.7376,"MEAN_ANOMALY":263.3956,"EPHEMERIS_TYPE":0,"CLASSIFICATION_TYPE":"U","NORAD_CAT_ID":48989,"ELEMENT_SET_NO":999,"REV_AT_EPOCH":20748,"BSTAR":-0.00015452836,"MEAN_MOTION_DOT":-4.6e-7,"MEAN_MOTION_DDOT":0},{"OBJECT_NAME":"ONEWEB-0272","OBJECT_ID":"2021-060Z","EPOCH":"2025-10-15T13:24:40.474656","MEAN_MOTION":13.16594524,"ECCENTRICITY":0.00016596,"INCLINATION":87.8968,"RA_OF_ASC_NODE":277.5282,"ARG_OF_PERICENTER":93.2961,"MEAN_ANOMALY":266.836,"EPHEMERIS_TYPE":0,"CLASSIFICATION_TYPE":"U","NORAD_CAT_ID":48990,"ELEMENT_SET_NO":999,"REV_AT_EPOCH":20742,"BSTAR":-6.3877885e-5,"MEAN_MOTION_DOT":-1.2e-7,"MEAN_MOTION_DDOT":0},{"OBJECT_NAME":"ONEWEB-0273","OBJECT_ID":"2021-060AA","EPOCH":"2025-10-15T10:17:41.848512","MEAN_MOTION":13.16594477,"ECCENTRICITY":0.00019156,"INCLINATION":87.8974,"RA_OF_ASC_NODE":277.5446,"ARG_OF_PERICENTER":93.7843,"MEAN_ANOMALY":266.3507,"EPHEMERIS_TYPE":0,"CLASSIFICATION_TYPE":"U","NORAD_CAT_ID":48991,"ELEMENT_SET_NO":999,"REV_AT_EPOCH":20738,"BSTAR":-0.00056668464,"MEAN_MOTION_DOT":-2.04e-6,"MEAN_MOTION_DDOT":0},{"OBJECT_NAME":"ONEWEB-0274","OBJECT_ID":"2021-060AB","EPOCH":"2025-10-15T10:54:12.450528","MEAN_MOTION":13.16594771,"ECCENTRICITY":0.00014786,"INCLINATION":87.8966,"RA_OF_ASC_NODE":277.5685,"ARG_OF_PERICENTER":86.4582,"MEAN_ANOMALY":273.6718,"EPHEMERIS_TYPE":0,"CLASSIFICATION_TYPE":"U","NORAD_CAT_ID":48992,"ELEMENT_SET_NO":999,"REV_AT_EPOCH":20742,"BSTAR":-9.0008857e-5,"MEAN_MOTION_DOT":-2.2e-7,"MEAN_MOTION_DDOT":0},{"OBJECT_NAME":"ONEWEB-0275","OBJECT_ID":"2021-060AC","EPOCH":"2025-10-15T10:38:15.061632","MEAN_MOTION":13.16594739,"ECCENTRICITY":0.00017727,"INCLINATION":87.8974,"RA_OF_ASC_NODE":277.5358,"ARG_OF_PERICENTER":89.9579,"MEAN_ANOMALY":270.1755,"EPHEMERIS_TYPE":0,"CLASSIFICATION_TYPE":"U","NORAD_CAT_ID":48993,"ELEMENT_SET_NO":999,"REV_AT_EPOCH":20735,"BSTAR":0.00017970414,"MEAN_MOTION_DOT":8.2e-7,"MEAN_MOTION_DDOT":0},{"OBJECT_NAME":"ONEWEB-0276","OBJECT_ID":"2021-060AD","EPOCH":"2025-10-15T13:15:33.172128","MEAN_MOTION":13.16593745,"ECCENTRICITY":0.00020511,"INCLINATION":87.8978,"RA_OF_ASC_NODE":277.5123,"ARG_OF_PERICENTER":91.7425,"MEAN_ANOMALY":268.3941,"EPHEMERIS_TYPE":0,"CLASSIFICATION_TYPE":"U","NORAD_CAT_ID":48994,"ELEMENT_SET_NO":999,"REV_AT_EPOCH":20738,"BSTAR":-2.5546414e-5,"MEAN_MOTION_DOT":3.0e-8,"MEAN_MOTION_DDOT":0},{"OBJECT_NAME":"ONEWEB-0277","OBJECT_ID":"2021-060AE","EPOCH":"2025-10-15T11:44:23.897472","MEAN_MOTION":13.16592861,"ECCENTRICITY":0.00017223,"INCLINATION":87.8962,"RA_OF_ASC_NODE":277.5552,"ARG_OF_PERICENTER":94.1573,"MEAN_ANOMALY":265.9755,"EPHEMERIS_TYPE":0,"CLASSIFICATION_TYPE":"U","NORAD_CAT_ID":48995,"ELEMENT_SET_NO":999,"REV_AT_EPOCH":20736,"BSTAR":0.00038439239,"MEAN_MOTION_DOT":1.6e-6,"MEAN_MOTION_DDOT":0},{"OBJECT_NAME":"ONEWEB-0278","OBJECT_ID":"2021-060AF","EPOCH":"2025-10-15T13:20:07.138752","MEAN_MOTION":13.16594482,"ECCENTRICITY":0.00021296,"INCLINATION":87.8977,"RA_OF_ASC_NODE":277.5083,"ARG_OF_PERICENTER":86.605,"MEAN_ANOMALY":273.5324,"EPHEMERIS_TYPE":0,"CLASSIFICATION_TYPE":"U","NORAD_CAT_ID":48996,"ELEMENT_SET_NO":999,"REV_AT_EPOCH":20750,"BSTAR":-2.808181e-6,"MEAN_MOTION_DOT":1.2e-7,"MEAN_MOTION_DDOT":0},{"OBJECT_NAME":"ONEWEB-0279","OBJECT_ID":"2021-060AG","EPOCH":"2025-10-15T11:42:03.234816","MEAN_MOTION":13.16596423,"ECCENTRICITY":0.00016848,"INCLINATION":87.8977,"RA_OF_ASC_NODE":277.5173,"ARG_OF_PERICENTER":97.3827,"MEAN_ANOMALY":262.7496,"EPHEMERIS_TYPE":0,"CLASSIFICATION_TYPE":"U","NORAD_CAT_ID":48997,"ELEMENT_SET_NO":999,"REV_AT_EPOCH":20742,"BSTAR":0.00019588234,"MEAN_MOTION_DOT":8.8e-7,"MEAN_MOTION_DDOT":0},{"OBJECT_NAME":"ONEWEB-0280","OBJECT_ID":"2021-060AH","EPOCH":"2025-10-15T12:03:44.373888","MEAN_MOTION":13.16592456,"ECCENTRICITY":0.00022402,"INCLINATION":87.8978,"RA_OF_ASC_NODE":277.522,"ARG_OF_PERICENTER":95.8186,"MEAN_ANOMALY":264.32,"EPHEMERIS_TYPE":0,"CLASSIFICATION_TYPE":"U","NORAD_CAT_ID":48998,"ELEMENT_SET_NO":999,"REV_AT_EPOCH":20736,"BSTAR":0.00019434726,"MEAN_MOTION_DOT":8.7e-7,"MEAN_MOTION_DDOT":0},{"OBJECT_NAME":"ONEWEB-0281","OBJECT_ID":"2021-060AJ","EPOCH":"2025-10-15T10:22:16.246272","MEAN_MOTION":13.16596783,"ECCENTRICITY":0.00017613,"INCLINATION":87.8973,"RA_OF_ASC_NODE":277.5328,"ARG_OF_PERICENTER":85.8657,"MEAN_ANOMALY":274.2675,"EPHEMERIS_TYPE":0,"CLASSIFICATION_TYPE":"U","NORAD_CAT_ID":48999,"ELEMENT_SET_NO":999,"REV_AT_EPOCH":20742,"BSTAR":0.00037804298,"MEAN_MOTION_DOT":1.57e-6,"MEAN_MOTION_DDOT":0},{"OBJECT_NAME":"ONEWEB-0282","OBJECT_ID":"2021-060AK","EPOCH":"2025-10-15T14:44:28.641696","MEAN_MOTION":13.16593274,"ECCENTRICITY":0.00019204,"INCLINATION":87.8977,"RA_OF_ASC_NODE":277.5071,"ARG_OF_PERICENTER":93.65,"MEAN_ANOMALY":266.485,"EPHEMERIS_TYPE":0,"CLASSIFICATION_TYPE":"U","NORAD_CAT_ID":49000,"ELEMENT_SET_NO":999,"REV_AT_EPOCH":20742,"BSTAR":-0.00019203007,"MEAN_MOTION_DOT":-6.1e-7,"MEAN_MOTION_DDOT":0},{"OBJECT_NAME":"ONEWEB-0283","OBJECT_ID":"2021-060AL","EPOCH":"2025-10-15T10:49:38.440704","MEAN_MOTION":13.16594961,"ECCENTRICITY":0.00017987,"INCLINATION":87.8974,"RA_OF_ASC_NODE":277.5405,"ARG_OF_PERICENTER":93.1943,"MEAN_ANOMALY":266.9394,"EPHEMERIS_TYPE":0,"CLASSIFICATION_TYPE":"U","NORAD_CAT_ID":49001,"ELEMENT_SET_NO":999,"REV_AT_EPOCH":20741,"BSTAR":-0.00019494897,"MEAN_MOTION_DOT":-6.2e-7,"MEAN_MOTION_DDOT":0},{"OBJECT_NAME":"ONEWEB-0284","OBJECT_ID":"2021-060AM","EPOCH":"2025-10-15T10:40:31.100160","MEAN_MOTION":13.16593178,"ECCENTRICITY":0.00022573,"INCLINATION":87.8986,"RA_OF_ASC_NODE":277.5264,"ARG_OF_PERICENTER":89.9867,"MEAN_ANOMALY":270.1522,"EPHEMERIS_TYPE":0,"CLASSIFICATION_TYPE":"U","NORAD_CAT_ID":49002,"ELEMENT_SET_NO":999,"REV_AT_EPOCH":20739,"BSTAR":3.414786e-5,"MEAN_MOTION_DOT":2.6e-7,"MEAN_MOTION_DDOT":0},{"OBJECT_NAME":"ONEWEB-0285","OBJECT_ID":"2021-075A","EPOCH":"2025-10-15T13:37:30.715104","MEAN_MOTION":13.12442928,"ECCENTRICITY":0.0001753,"INCLINATION":87.8961,"RA_OF_ASC_NODE":39.2524,"ARG_OF_PERICENTER":101.9545,"MEAN_ANOMALY":258.178,"EPHEMERIS_TYPE":0,"CLASSIFICATION_TYPE":"U","NORAD_CAT_ID":49075,"ELEMENT_SET_NO":999,"REV_AT_EPOCH":20312,"BSTAR":-0.00092195,"MEAN_MOTION_DOT":-3.19e-6,"MEAN_MOTION_DDOT":0},{"OBJECT_NAME":"ONEWEB-0286","OBJECT_ID":"2021-075B","EPOCH":"2025-10-15T09:31:52.324032","MEAN_MOTION":13.12441424,"ECCENTRICITY":0.00017603,"INCLINATION":87.8954,"RA_OF_ASC_NODE":39.3212,"ARG_OF_PERICENTER":95.0389,"MEAN_ANOMALY":265.0941,"EPHEMERIS_TYPE":0,"CLASSIFICATION_TYPE":"U","NORAD_CAT_ID":49076,"ELEMENT_SET_NO":999,"REV_AT_EPOCH":20245,"BSTAR":0.00019861617,"MEAN_MOTION_DOT":8.4e-7,"MEAN_MOTION_DDOT":0}]
