ONEWEB-0271             
1 48989U 21060Y   25288.61263283 -.00000046  00000+0 -15453-3 0  9995
2 48989  87.8984 277.4926 0001769  96.7376 263.3956 13.16594230207481
ONEWEB-0272             
1 48990U 21060Z   25288.55880179 -.00000012  00000+0 -63878-4 0  9997
2 48990  87.8968 277.5282 0001659  93.2961 266.8360 13.16594524207428
ONEWEB-0273             
1 48991U 21060AA  25288.42895658 -.00000204  00000+0 -56668-3 0  9993
2 48991  87.8974 277.5446 0001915  93.7843 266.3507 13.16594477207387
ONEWEB-0274             
1 48992U 21060AB  25288.45431077 -.00000022  00000+0 -90009-4 0  9994
2 48992  87.8966 277.5685 0001478  86.4582 273.6718 13.16594771207424
ONEWEB-0275             
1 48993U 21060AC  25288.44322988  .00000082  00000+0  17970-3 0  9993
2 48993  87.8974 277.5358 0001772  89.9579 270.1755 13.16594739207351
ONEWEB-0276             
1 48994U 21060AD  25288.55246727  .00000003  00000+0 -25546-4 0  9995
2 48994  87.8978 277.5123 0002051  91.7425 268.3941 13.16593745207383
ONEWEB-0277             
1 48995U 21060AE  25288.48916548  .00000160  00000+0  38439-3 0  9990
2 48995  87.8962 277.5552 0001722  94.1573 265.9755 13.16592861207360
ONEWEB-0278             
1 48996U 21060AF  25288.55563818  .00000012  00000+0 -28082-5 0  9999
2 48996  87.8977 277.5083 0002129  86.6050 273.5324 13.16594482207508
ONEWEB-0279             
1 48997U 21060AG  25288.48753744  .00000088  00000+0  19588-3 0  9992
2 48997  87.8977 277.5173 0001684  97.3827 262.7496 13.16596423207423
ONEWEB-0280             
1 48998U 21060AH  25288.50259692  .00000087  00000+0  19435-3 0  9999
2 48998  87.8978 277.5220 0002240  95.8186 264.3200 13.16592456207364
ONEWEB-0281             
1 48999U 21060AJ  25288.43213248  .00000157  00000+0  37804-3 0  9997
2 48999  87.8973 277.5328 0001761  85.8657 274.2675 13.16596783207428
ONEWEB-0282             
1 49000U 21060AK  25288.61422039 -.00000061  00000+0 -19203-3 0  9990
2 49000  87.8977 277.5071 0001920  93.6500 266.4850 13.16593274207422
ONEWEB-0283             
1 49001U 21060AL  25288.45113936 -.00000062  00000+0 -19495-3 0  9990
2 49001  87.8974 277.5405 0001798  93.1943 266.9394 13.16594961207411
ONEWEB-0284             
1 49002U 21060AM  25288.44480440  .00000026  00000+0  34148-4 0  9998
2 49002  87.8986 277.5264 0002257  89.9867 270.1522 13.16593178207393
ONEWEB-0285             
1 49075U 21075A   25288.56771661 -.00000319  00000+0 -92195-3 0  9997
2 49075  87.8961  39.2524 0001753 101.9545 258.1780 13.12442928203127
ONEWEB-0286             
1 49076U 21075B   25288.39713338  .00000084  00000+0  19862-3 0  9993
2 49076  87.8954  39.3212 0001760  95.0389 265.0941 13.12441424202453
